#aV2020  3 22  0  0  0.00000000     288 DD+AD WGS84 FIT  NGA
## 2098      0.00000000   300.00000000 58930 0.0000000000000
+   32     1  2  3  4  5  6  7  8  9 10 11 12 13 14 15 16 17
+         18 19 20 21 22 23 24 25 26 27 28 29 30 31 32  0  0
+          0  0  0  0  0  0  0  0  0  0  0  0  0  0  0  0  0
+          0  0  0  0  0  0  0  0  0  0  0  0  0  0  0  0  0
+          0  0  0  0  0  0  0  0  0  0  0  0  0  0  0  0  0
++         2  2  2  2  2  2  2  2  2  2  2  2  2  2  2  2  2
++         2  2  2  2  2  2  2  2  2  2  2  2  2  2  2  0  0
++         0  0  0  0  0  0  0  0  0  0  0  0  0  0  0  0  0
++         0  0  0  0  0  0  0  0  0  0  0  0  0  0  0  0  0
++         0  0  0  0  0  0  0  0  0  0  0  0  0  0  0  0  0
%c cc cc ccc ccc cccc cccc cccc cccc ccccc ccccc ccccc ccccc
%c cc cc ccc ccc cccc cccc cccc cccc ccccc ccccc ccccc ccccc
%f  0.0000000  0.000000000  0.00000000000  0.000000000000000
%f  0.0000000  0.000000000  0.00000000000  0.000000000000000
%i    0    0    0    0      0      0      0      0         0
%i    0    0    0    0      0      0      0      0         0
/*      NGA, ST. LOUIS,MO.                                  
/*   EPHEMERIS COMPUTED FROM 2 DAYS OF DATA                 
/*   EPOCHA v5 SMOOTHER                                     
/*   G1762 IERS2010 SATAF SATAPC                            
*  2020  3 22  7 30  0.00000000
P  1 -14136.550903  22012.132806  -3586.657482   -333.943648                    
V  1  -4612.172766   1890.470663  31946.360316     -0.125526                    
P  2  19036.240121  -8679.025026 -15680.985300   -426.179147                    
V  2  -9881.465800  18811.422234 -21607.231841     -0.066227                    
P  3  -9164.136233  13457.563403 -21020.503495   -124.397844                    
V  3 -26231.103745  -4313.030727   8792.683452     -0.101053                    
P  4  -2895.225571  21824.658922 -14829.701037    -65.641391                    
V  4  -8579.014002 -16924.119146 -23243.223103     -0.052359                    
P  5  25500.257368  -2540.947173   7222.887406     -9.528300                    
V  5   8974.817411   3732.944935 -29626.198438     -0.006368                    
P  6  15480.281526   3338.700471 -21276.576715   -236.386348                    
V  6 -16048.584351  21821.029735  -8188.348385     -0.083520                    
P  7    274.756765  19885.760088  17657.053510   -241.266205                    
V  7 -15225.551663  16082.211167 -18655.385870     -0.085421                    
P  8 -10316.571619  12476.778041  21028.039395    -27.978369                    
V  8 -11283.524048 -24185.538691   9070.430381     -0.013803                    
P  9   6347.604779  25140.264159  -5768.507729   -181.740568                    
V  9  -5589.838631  -5509.383334 -30455.014451     -0.080715                    
P 10 -20321.238604 -11639.038807  12835.412766   -285.374053                    
V 10  16188.884177    121.152176  25681.937875     -0.124593                    
P 11 -12545.926977  20692.323766  10788.380798   -327.059570                    
V 11   -781.151100 -14853.469205  26082.373377      0.107858                    
P 12  12123.105167 -11719.011592 -20711.767178    137.962772                    
V 12  25066.687782   6016.703494  11560.382526     -0.042521                    
P 13  14465.867167  -3942.615194  21802.617337     -3.910319                    
V 13   7339.351943  26969.356547     89.560593      0.029223                    
P 14 -16345.616521 -11518.426752 -17235.398533    -24.705633                    
V 14  -5264.115668 -21919.086244  19082.462194      0.025158                    
P 15   9360.033910 -14190.626920  20015.477305   -243.290070                    
V 15  13727.351000  22499.071801   9766.990324      0.026129                    
P 16 -25466.923752   -163.746678   8108.021766   -137.794158                    
V 16  -9799.859105  -4021.497281 -29631.068354     -0.042963                    
P 17  13969.718445  20098.976795  -9947.209399    236.145754                    
V 17   2521.506800  13103.975279  28755.969825      0.063545                    
P 18   6333.801325 -22240.690652  13055.744386    127.670304                    
V 18  12169.586319 -11476.243505 -25470.892877      0.147024                    
P 19  15780.720631  13310.785850 -17007.838495   -182.469438                    
V 19   4736.155316  20477.580371  20781.615256      0.051422                    
P 20 -10382.120656 -14557.034529  19618.988886    527.858265                    
V 20  25134.293150  -1300.170395  12073.028575     -0.000201                    
P 21  -2389.871683 -19893.833024  18352.007069    -24.489288                    
V 21  13200.109870 -17232.824827 -17476.059489      0.051446                    
P 22 -17625.403186  11173.555633 -16134.959203   -785.428692                    
V 22 -20891.763324  -3640.745952  20148.728019      0.001151                    
P 23  -1445.760838  22057.031116 -14079.093053   -127.952645                    
V 23 -10158.472203 -15957.837239 -23729.192680      0.027137                    
P 24  14107.911530 -22246.891616  -1146.280881    -10.678660                    
V 24   3918.640119   1157.192916  31401.615976     -0.004885                    
P 25   -811.739923 -15376.132213 -21895.358132     -7.751841                    
V 25  26975.098471   3519.081460  -3242.083463      0.020505                    
P 26 -26211.956625  -4387.724508  -2397.326215    172.411398                    
V 26   3282.232475  -2718.673400 -31114.694974      0.075025                    
P 27 -15446.780304    518.881170  21515.901725   -245.397059                    
V 27 -10218.259688 -25556.706768  -6353.019996     -0.107003                    
P 28  19949.366955  13005.838339  12193.339270    731.120935                    
V 28 -14635.200711  -1471.254381  26949.193111     -0.027055                    
P 29  -3150.687523 -25262.066815  -7577.471305    -62.495033                    
V 29   4827.676849   8456.906084 -30367.324183     -0.091871                    
P 30   9980.919713  12384.554145  21284.309913   -180.997087                    
V 30 -17661.665519  20507.501672  -3860.728973     -0.086570                    
P 31 -17499.456210   -926.187100 -20122.083145    -31.011456                    
V 31  15325.490976 -20215.604270 -11971.438825     -0.024698                    
P 32 -15888.366943 -18502.751376 -10619.975081    242.008717                    
V 32  -2976.431899 -13448.314504  27549.849430      0.089641                    
EOF
